{
    "links": {
        "self": "http://www.neowsapp.com/rest/v1/neo/3802449?api_key=iIulBulltgU6a56xZRHN4H3l9WmuAYTsLGpBGhQ2"
    },
    "id": "3802449",
    "neo_reference_id": "3802449",
    "name": "(2018 GK2)",
    "designation": "2018 GK2",
    "nasa_jpl_url": "http://ssd.jpl.nasa.gov/sbdb.cgi?sstr=3802449",
    "absolute_magnitude_h": 24.0,
    "estimated_diameter": {
        "kilometers": {
            "estimated_diameter_min": 0.0421264611,
            "estimated_diameter_max": 0.0941976306
        },
        "meters": {
            "estimated_diameter_min": 42.1264610556,
            "estimated_diameter_max": 94.1976305719
        },
        "miles": {
            "estimated_diameter_min": 0.0261761612,
            "estimated_diameter_max": 0.0585316759
        },
        "feet": {
            "estimated_diameter_min": 138.2101784897,
            "estimated_diameter_max": 309.0473542854
        }
    },
    "is_potentially_hazardous_asteroid": false,
    "close_approach_data": [
        {
            "close_approach_date": "2018-04-11",
            "close_approach_date_full": "2018-Apr-11 08:43",
            "epoch_date_close_approach": 1523436180000,
            "relative_velocity": {
                "kilometers_per_second": "11.7330923483",
                "kilometers_per_hour": "42239.1324537954",
                "miles_per_hour": "26245.7542738597"
            },
            "miss_distance": {
                "astronomical": "0.1176588223",
                "lunar": "45.7692818747",
                "kilometers": "17601509.202788501",
                "miles": "10937070.6599072738"
            },
            "orbiting_body": "Earth"
        },
        {
            "close_approach_date": "2152-03-28",
            "close_approach_date_full": "2152-Mar-28 15:58",
            "epoch_date_close_approach": 5750927880000,
            "relative_velocity": {
                "kilometers_per_second": "16.2033709139",
                "kilometers_per_hour": "58332.1352899856",
                "miles_per_hour": "36245.3203972691"
            },
            "miss_distance": {
                "astronomical": "0.3987462073",
                "lunar": "155.1122746397",
                "kilometers": "59651583.282658451",
                "miles": "37065775.0890145838"
            },
            "orbiting_body": "Earth"
        },
        {
            "close_approach_date": "2161-04-07",
            "close_approach_date_full": "2161-Apr-07 15:27",
            "epoch_date_close_approach": 6035786820000,
            "relative_velocity": {
                "kilometers_per_second": "11.9809489181",
                "kilometers_per_hour": "43131.4161052867",
                "miles_per_hour": "26800.1846349766"
            },
            "miss_distance": {
                "astronomical": "0.112205992",
                "lunar": "43.648130888",
                "kilometers": "16785777.40443704",
                "miles": "10430198.424389552"
            },
            "orbiting_body": "Earth"
        }
    ],
    "orbital_data": {
        "orbit_id": "5",
        "orbit_determination_date": "2018-05-13 06:25:06",
        "first_observation_date": "2018-04-11",
        "last_observation_date": "2018-04-25",
        "data_arc_in_days": 14,
        "observations_used": 35,
        "orbit_uncertainty": "8",
        "minimum_orbit_intersection": ".0843398",
        "jupiter_tisserand_invariant": "4.464",
        "epoch_osculation": "2458222.5",
        "eccentricity": ".2689549217571486",
        "semi_major_axis": "1.484750948083431",
        "inclination": "21.19070570984127",
        "ascending_node_longitude": "17.81771855600428",
        "orbital_period": "660.8134041504529",
        "perihelion_distance": "1.0854198730128",
        "perihelion_argument": "182.7889028478063",
        "aphelion_distance": "1.884082023154063",
        "perihelion_time": "2458223.977064871774",
        "mean_anomaly": "359.1953199640037",
        "mean_motion": ".5447831380824045",
        "equinox": "J2000",
        "orbit_class": {
            "orbit_class_type": "AMO",
            "orbit_class_description": "Near-Earth asteroid orbits similar to that of 1221 Amor",
            "orbit_class_range": "1.017 AU < q (perihelion) < 1.3 AU"
        }
    },
    "is_sentry_object": false
}